[{"OBJECT_NAME":"NOAA 2 (ITOS-D)","OBJECT_ID":"1972-082A","EPOCH":"2026-03-28T20:09:22.942368","MEAN_MOTION":12.53212416,"ECCENTRICITY":0.0003778,"INCLINATION":102.0148,"RA_OF_ASC_NODE":105.5141,"ARG_OF_PERICENTER":327.3665,"MEAN_ANOMALY":204.3417,"EPHEMERIS_TYPE":0,"CLASSIFICATION_TYPE":"U","NORAD_CAT_ID":6235,"ELEMENT_SET_NO":999,"REV_AT_EPOCH":44488,"BSTAR":0.0001539,"MEAN_MOTION_DOT":-2.2e-7,"MEAN_MOTION_DDOT":0},{"OBJECT_NAME":"OSCAR 7 (AO-7)","OBJECT_ID":"1974-089B","EPOCH":"2026-03-28T13:26:48.080544","MEAN_MOTION":12.53696708,"ECCENTRICITY":0.00118629,"INCLINATION":101.9957,"RA_OF_ASC_NODE":99.9536,"ARG_OF_PERICENTER":285.3194,"MEAN_ANOMALY":195.1249,"EPHEMERIS_TYPE":0,"CLASSIFICATION_TYPE":"U","NORAD_CAT_ID":7530,"ELEMENT_SET_NO":999,"REV_AT_EPOCH":35041,"BSTAR":0.00014351244,"MEAN_MOTION_DOT":-2.4e-7,"MEAN_MOTION_DDOT":0},{"OBJECT_NAME":"TIROS N","OBJECT_ID":"1978-096A","EPOCH":"2026-03-28T18:35:43.118304","MEAN_MOTION":14.19346668,"ECCENTRICITY":0.0011551,"INCLINATION":98.461,"RA_OF_ASC_NODE":112.4464,"ARG_OF_PERICENTER":113.677,"MEAN_ANOMALY":246.5621,"EPHEMERIS_TYPE":0,"CLASSIFICATION_TYPE":"U","NORAD_CAT_ID":11060,"ELEMENT_SET_NO":999,"REV_AT_EPOCH":66734,"BSTAR":0.00010093,"MEAN_MOTION_DOT":1.71e-6,"MEAN_MOTION_DDOT":0},{"OBJECT_NAME":"PHASE 3B (AO-10)","OBJECT_ID":"1983-058B","EPOCH":"2026-03-25T08:37:11.679744","MEAN_MOTION":2.05874335,"ECCENTRICITY":0.60409983,"INCLINATION":25.9114,"RA_OF_ASC_NODE":233.602,"ARG_OF_PERICENTER":92.4738,"MEAN_ANOMALY":333.4977,"EPHEMERIS_TYPE":0,"CLASSIFICATION_TYPE":"U","NORAD_CAT_ID":14129,"ELEMENT_SET_NO":999,"REV_AT_EPOCH":29376,"BSTAR":0,"MEAN_MOTION_DOT":-3.51e-6,"MEAN_MOTION_DDOT":0},{"OBJECT_NAME":"HILAT","OBJECT_ID":"1983-063A","EPOCH":"2026-03-28T18:45:57.792960","MEAN_MOTION":14.38653991,"ECCENTRICITY":0.0039677,"INCLINATION":82.023,"RA_OF_ASC_NODE":235.7646,"ARG_OF_PERICENTER":172.7317,"MEAN_ANOMALY":302.8165,"EPHEMERIS_TYPE":0,"CLASSIFICATION_TYPE":"U","NORAD_CAT_ID":14154,"ELEMENT_SET_NO":999,"REV_AT_EPOCH":23602,"BSTAR":0.00017272,"MEAN_MOTION_DOT":5.5e-6,"MEAN_MOTION_DDOT":0},{"OBJECT_NAME":"UOSAT 2 (UO-11)","OBJECT_ID":"1984-021B","EPOCH":"2026-03-28T19:20:41.092224","MEAN_MOTION":14.90570768,"ECCENTRICITY":0.0009188,"INCLINATION":97.7979,"RA_OF_ASC_NODE":54.3278,"ARG_OF_PERICENTER":89.6996,"MEAN_ANOMALY":270.5275,"EPHEMERIS_TYPE":0,"CLASSIFICATION_TYPE":"U","NORAD_CAT_ID":14781,"ELEMENT_SET_NO":999,"REV_AT_EPOCH":24515,"BSTAR":0.00017174,"MEAN_MOTION_DOT":1.625e-5,"MEAN_MOTION_DDOT":0},{"OBJECT_NAME":"NOAA 9","OBJECT_ID":"1984-123A","EPOCH":"2026-03-28T19:16:07.732128","MEAN_MOTION":14.17045126,"ECCENTRICITY":0.0014103,"INCLINATION":99.1073,"RA_OF_ASC_NODE":112.5503,"ARG_OF_PERICENTER":214.2604,"MEAN_ANOMALY":319.0982,"EPHEMERIS_TYPE":0,"CLASSIFICATION_TYPE":"U","NORAD_CAT_ID":15427,"ELEMENT_SET_NO":999,"REV_AT_EPOCH":13203,"BSTAR":7.7723e-5,"MEAN_MOTION_DOT":1.1e-6,"MEAN_MOTION_DDOT":0},{"OBJECT_NAME":"GEOSAT","OBJECT_ID":"1985-021A","EPOCH":"2026-03-28T18:31:30.302400","MEAN_MOTION":14.39926382,"ECCENTRICITY":0.0002252,"INCLINATION":108.0515,"RA_OF_ASC_NODE":274.0741,"ARG_OF_PERICENTER":255.726,"MEAN_ANOMALY":104.3632,"EPHEMERIS_TYPE":0,"CLASSIFICATION_TYPE":"U","NORAD_CAT_ID":15595,"ELEMENT_SET_NO":999,"REV_AT_EPOCH":15119,"BSTAR":0.00010168,"MEAN_MOTION_DOT":1.84e-6,"MEAN_MOTION_DDOT":0},{"OBJECT_NAME":"EUTELSAT 1-F4 (ECS 4)","OBJECT_ID":"1987-078B","EPOCH":"2026-03-28T20:09:02.496672","MEAN_MOTION":0.98687685,"ECCENTRICITY":0.001192,"INCLINATION":13.8858,"RA_OF_ASC_NODE":342.6855,"ARG_OF_PERICENTER":30.8666,"MEAN_ANOMALY":164.2222,"EPHEMERIS_TYPE":0,"CLASSIFICATION_TYPE":"U","NORAD_CAT_ID":18351,"ELEMENT_SET_NO":999,"REV_AT_EPOCH":12596,"BSTAR":0,"MEAN_MOTION_DOT":-1.0e-7,"MEAN_MOTION_DDOT":0},{"OBJECT_NAME":"PACSAT (AO-16)","OBJECT_ID":"1990-005D","EPOCH":"2026-03-28T21:07:25.788576","MEAN_MOTION":14.33909422,"ECCENTRICITY":0.0011653,"INCLINATION":98.8617,"RA_OF_ASC_NODE":121.6434,"ARG_OF_PERICENTER":106.3124,"MEAN_ANOMALY":65.6961,"EPHEMERIS_TYPE":0,"CLASSIFICATION_TYPE":"U","NORAD_CAT_ID":20439,"ELEMENT_SET_NO":999,"REV_AT_EPOCH":89042,"BSTAR":7.5112e-5,"MEAN_MOTION_DOT":1.63e-6,"MEAN_MOTION_DDOT":0},{"OBJECT_NAME":"LUSAT (LO-19)","OBJECT_ID":"1990-005G","EPOCH":"2026-03-28T14:21:49.430592","MEAN_MOTION":14.34095708,"ECCENTRICITY":0.0012686,"INCLINATION":98.892,"RA_OF_ASC_NODE":107.1602,"ARG_OF_PERICENTER":83.4954,"MEAN_ANOMALY":276.7673,"EPHEMERIS_TYPE":0,"CLASSIFICATION_TYPE":"U","NORAD_CAT_ID":20442,"ELEMENT_SET_NO":999,"REV_AT_EPOCH":89084,"BSTAR":7.5194e-5,"MEAN_MOTION_DOT":1.64e-6,"MEAN_MOTION_DDOT":0},{"OBJECT_NAME":"IRS-1B","OBJECT_ID":"1991-061A","EPOCH":"2026-03-28T18:16:14.363040","MEAN_MOTION":13.97862138,"ECCENTRICITY":0.0023544,"INCLINATION":99.4141,"RA_OF_ASC_NODE":93.6956,"ARG_OF_PERICENTER":219.8565,"MEAN_ANOMALY":313.2413,"EPHEMERIS_TYPE":0,"CLASSIFICATION_TYPE":"U","NORAD_CAT_ID":21688,"ELEMENT_SET_NO":999,"REV_AT_EPOCH":65725,"BSTAR":0.00030166,"MEAN_MOTION_DOT":3.81e-6,"MEAN_MOTION_DDOT":0},{"OBJECT_NAME":"COSMOS 2197","OBJECT_ID":"1992-042A","EPOCH":"2026-03-28T19:31:54.975936","MEAN_MOTION":12.64249571,"ECCENTRICITY":0.0013595,"INCLINATION":82.5895,"RA_OF_ASC_NODE":280.3033,"ARG_OF_PERICENTER":97.0802,"MEAN_ANOMALY":274.2278,"EPHEMERIS_TYPE":0,"CLASSIFICATION_TYPE":"U","NORAD_CAT_ID":22034,"ELEMENT_SET_NO":999,"REV_AT_EPOCH":55513,"BSTAR":0.00027634,"MEAN_MOTION_DOT":6.2e-7,"MEAN_MOTION_DDOT":0},{"OBJECT_NAME":"PEGASUS R/B","OBJECT_ID":"1993-009C","EPOCH":"2026-03-28T16:38:13.806240","MEAN_MOTION":14.57857399,"ECCENTRICITY":0.0043976,"INCLINATION":24.9774,"RA_OF_ASC_NODE":236.5198,"ARG_OF_PERICENTER":319.1045,"MEAN_ANOMALY":40.6172,"EPHEMERIS_TYPE":0,"CLASSIFICATION_TYPE":"U","NORAD_CAT_ID":22491,"ELEMENT_SET_NO":999,"REV_AT_EPOCH":75787,"BSTAR":0.00016166,"MEAN_MOTION_DOT":9.68e-6,"MEAN_MOTION_DDOT":0},{"OBJECT_NAME":"EYESAT A (AO-27)","OBJECT_ID":"1993-061C","EPOCH":"2026-03-28T19:07:03.296352","MEAN_MOTION":14.30919236,"ECCENTRICITY":0.0007908,"INCLINATION":98.6945,"RA_OF_ASC_NODE":155.2176,"ARG_OF_PERICENTER":343.915,"MEAN_ANOMALY":16.1781,"EPHEMERIS_TYPE":0,"CLASSIFICATION_TYPE":"U","NORAD_CAT_ID":22825,"ELEMENT_SET_NO":999,"REV_AT_EPOCH":69550,"BSTAR":5.9436e-5,"MEAN_MOTION_DOT":1.11e-6,"MEAN_MOTION_DDOT":0},{"OBJECT_NAME":"ITAMSAT (IO-26)","OBJECT_ID":"1993-061D","EPOCH":"2026-03-28T17:31:08.670144","MEAN_MOTION":14.3134389,"ECCENTRICITY":0.0008134,"INCLINATION":98.6892,"RA_OF_ASC_NODE":155.0603,"ARG_OF_PERICENTER":326.1072,"MEAN_ANOMALY":33.959,"EPHEMERIS_TYPE":0,"CLASSIFICATION_TYPE":"U","NORAD_CAT_ID":22826,"ELEMENT_SET_NO":999,"REV_AT_EPOCH":69580,"BSTAR":6.489e-5,"MEAN_MOTION_DOT":1.27e-6,"MEAN_MOTION_DDOT":0},{"OBJECT_NAME":"RADIO ROSTO (RS15)","OBJECT_ID":"1994-085A","EPOCH":"2026-03-28T16:11:58.917408","MEAN_MOTION":11.2758374,"ECCENTRICITY":0.0153388,"INCLINATION":64.8146,"RA_OF_ASC_NODE":73.4245,"ARG_OF_PERICENTER":18.4955,"MEAN_ANOMALY":342.1462,"EPHEMERIS_TYPE":0,"CLASSIFICATION_TYPE":"U","NORAD_CAT_ID":23439,"ELEMENT_SET_NO":999,"REV_AT_EPOCH":28682,"BSTAR":-0.00038535,"MEAN_MOTION_DOT":-5.6e-7,"MEAN_MOTION_DDOT":0}]
