NOAA 2 (ITOS-D)         
1 06235U 72082A   26087.83984887 -.00000022  00000+0  15390-3 0  9998
2 06235 102.0148 105.5141 0003778 327.3665 204.3417 12.53212416444884
OSCAR 7 (AO-7)          
1 07530U 74089B   26087.56027871 -.00000024  00000+0  14351-3 0  9995
2 07530 101.9957  99.9536 0011862 285.3194 195.1249 12.53696708350411
TIROS N                 
1 11060U 78096A   26087.77480461  .00000171  00000+0  10093-3 0  9992
2 11060  98.4610 112.4464 0011551 113.6770 246.5621 14.19346668667348
PHASE 3B (AO-10)        
1 14129U 83058B   26084.35916296 -.00000351  00000+0  00000+0 0  9990
2 14129  25.9114 233.6020 6040998  92.4738 333.4977  2.05874335293766
HILAT                   
1 14154U 83063A   26087.78191890  .00000550  00000+0  17272-3 0  9992
2 14154  82.0230 235.7646 0039677 172.7317 302.8165 14.38653991236022
UOSAT 2 (UO-11)         
1 14781U 84021B   26087.80603116  .00001625  00000+0  17174-3 0  9990
2 14781  97.7979  54.3278 0009188  89.6996 270.5275 14.90570768245155
NOAA 9                  
1 15427U 84123A   26087.80286727  .00000110  00000+0  77723-4 0  9991
2 15427  99.1073 112.5503 0014103 214.2604 319.0982 14.17045126132037
GEOSAT                  
1 15595U 85021A   26087.77187850  .00000184  00000+0  10168-3 0  9998
2 15595 108.0515 274.0741 0002252 255.7260 104.3632 14.39926382151193
EUTELSAT 1-F4 (ECS 4)   
1 18351U 87078B   26087.83961223 -.00000010  00000+0  00000+0 0  9995
2 18351  13.8858 342.6855 0011920  30.8666 164.2222  0.98687685125967
PACSAT (AO-16)          
1 20439U 90005D   26087.88015959  .00000163  00000+0  75112-4 0  9999
2 20439  98.8617 121.6434 0011653 106.3124  65.6961 14.33909422890426
LUSAT (LO-19)           
1 20442U 90005G   26087.59848878  .00000164  00000+0  75194-4 0  9996
2 20442  98.8920 107.1602 0012686  83.4954 276.7673 14.34095708890841
IRS-1B                  
1 21688U 91061A   26087.76127735  .00000381  00000+0  30166-3 0  9993
2 21688  99.4141  93.6956 0023544 219.8565 313.2413 13.97862138657257
COSMOS 2197             
1 22034U 92042A   26087.81383074  .00000062  00000+0  27634-3 0  9997
2 22034  82.5895 280.3033 0013595  97.0802 274.2278 12.64249571555130
PEGASUS R/B             
1 22491U 93009C   26087.69321535  .00000968  00000+0  16166-3 0  9991
2 22491  24.9774 236.5198 0043976 319.1045  40.6172 14.57857399757871
EYESAT A (AO-27)        
1 22825U 93061C   26087.79656593  .00000111  00000+0  59436-4 0  9994
2 22825  98.6945 155.2176 0007908 343.9150  16.1781 14.30919236695505
ITAMSAT (IO-26)         
1 22826U 93061D   26087.72996146  .00000127  00000+0  64890-4 0  9996
2 22826  98.6892 155.0603 0008134 326.1072  33.9590 14.31343890695804
RADIO ROSTO (RS15)      
1 23439U 94085A   26087.67498747 -.00000056  00000+0 -38535-3 0  9991
2 23439  64.8146  73.4245 0153388  18.4955 342.1462 11.27583740286823
